[{"OBJECT_NAME":"VSP ROSE","OBJECT_ID":"2024-043AC","EPOCH":"2026-03-09T21:48:06.922944","MEAN_MOTION":15.27746075,"ECCENTRICITY":0.00099339,"INCLINATION":97.5443,"RA_OF_ASC_NODE":203.927,"ARG_OF_PERICENTER":232.2702,"MEAN_ANOMALY":127.7637,"EPHEMERIS_TYPE":0,"CLASSIFICATION_TYPE":"U","NORAD_CAT_ID":59124,"ELEMENT_SET_NO":999,"REV_AT_EPOCH":11182,"BSTAR":0.00025731354,"MEAN_MOTION_DOT":6.907e-5,"MEAN_MOTION_DDOT":0},{"OBJECT_NAME":"STARLINK-32770","OBJECT_ID":"2025-014G","EPOCH":"2026-03-09T06:10:02.626176","MEAN_MOTION":15.27588135,"ECCENTRICITY":4.079e-5,"INCLINATION":42.9954,"RA_OF_ASC_NODE":156.6242,"ARG_OF_PERICENTER":256.5,"MEAN_ANOMALY":103.5806,"EPHEMERIS_TYPE":0,"CLASSIFICATION_TYPE":"U","NORAD_CAT_ID":62741,"ELEMENT_SET_NO":999,"REV_AT_EPOCH":6319,"BSTAR":0.0012357319,"MEAN_MOTION_DOT":0.00033908,"MEAN_MOTION_DDOT":0}]
